NORAD_CAT_ID,OBJECT_NAME,OBJECT_TYPE,EPOCH,MEAN_MOTION,ECCENTRICITY,INCLINATION,RA_OF_ASC_NODE,ARG_OF_PERICENTER,MEAN_ANOMALY,BSTAR,MEAN_MOTION_DOT,MEAN_MOTION_DDOT,TLE_LINE0,TLE_LINE1,TLE_LINE2,SEMIMAJOR_AXIS,PERIOD,APOGEE,PERIGEE,DECAYED
53635.0,STARLINK-4587,PAYLOAD,2022-11-17 22:00:00,15.29818457,0.0001335,53.2166,246.5895,59.7677,326.555,-0.044415,-0.01196947,0.0,0 STARLINK-4587,1 53635U 22104AZ  22321.91667824 -.01196947  00000-0 -44415-1 0  9992,2 53635  53.2166 246.5895 0001335  59.7677 326.5550 15.29818457  1309,6854.4919999999975,94.129,477.272,475.441,0.0
53635.0,STARLINK-4587,PAYLOAD,2022-11-18 14:00:01,15.28179378,0.0001436,53.2168,243.5028,54.8229,43.0603,-0.045961,-0.0117893,0.0,0 STARLINK-4587,1 53635U 22104AZ  22322.58334491 -.01178930  00000-0 -45961-1 0  9996,2 53635  53.2168 243.5028 0001436  54.8229  43.0603 15.28179378 12962,6859.392,94.23,482.242,480.272,0.0
53635.0,STARLINK-4587,PAYLOAD,2022-11-18 22:00:00,15.27383112,0.0001416999999999,53.2166,241.9622,67.625,64.561,-0.04817,-0.01203652,0.0,0 STARLINK-4587,1 53635U 22104AZ  22322.91667824 -.01203652  00000-0 -48170-1 0  9997,2 53635  53.2166 241.9622 0001417  67.6250  64.5610 15.27383112  1301,6861.776,94.279,484.61300000000006,482.668,0.0
53635.0,STARLINK-4587,PAYLOAD,2022-11-19 14:00:01,15.25755703,0.0001499,53.2167,238.887,54.3499,143.5241,-0.050551,-0.01202194,0.0,0 STARLINK-4587,1 53635U 22104AZ  22323.58334491 -.01202194  00000-0 -50551-1 0  9998,2 53635  53.2167 238.8870 0001499  54.3499 143.5241 15.25755703  1305,6866.654,94.379,489.548,487.49,0.0
53635.0,STARLINK-4587,PAYLOAD,2022-11-19 16:00:00,15.25516783,0.0001364,53.2169,238.5026,55.2108,240.618,-0.048765,-0.01155185,0.0,0 STARLINK-4587,1 53635U 22104AZ  22323.66667824 -.01155185  00000-0 -48765-1 0  9997,2 53635  53.2169 238.5026 0001364  55.2108 240.6180 15.25516783 13122,6867.371,94.394,490.173,488.299,0.0
53635.0,STARLINK-4587,PAYLOAD,2022-11-19 22:00:00,15.24933533,0.0001385,53.2166,237.3524,75.694,153.5617,-0.051297,-0.0119091,0.0,0 STARLINK-4587,1 53635U 22104AZ  22323.91667824 -.01190910  00000-0 -51297-1 0  9994,2 53635  53.2166 237.3524 0001385  75.6940 153.5617 15.24933533  1301,6869.121999999999,94.43,491.93800000000016,490.036,0.0
53635.0,STARLINK-4587,PAYLOAD,2022-11-20 14:00:01,15.23300814,0.0001341,53.2167,234.2883,57.0521,232.0274,-0.05347,-0.01182671,0.0,0 STARLINK-4587,1 53635U 22104AZ  22324.58334491 -.01182671  00000-0 -53470-1 0  9999,2 53635  53.2167 234.2883 0001341  57.0521 232.0274 15.23300814 13266,6874.03,94.532,496.816,494.973,0.0
53635.0,STARLINK-4587,PAYLOAD,2022-11-20 22:00:00,15.22461668,0.0001419,53.2176,232.7596,53.6523,263.8843,-0.053134,-0.01149001,0.0,0 STARLINK-4587,1 53635U 22104AZ  22324.91667824 -.01149001  00000-0 -53134-1 0  9992,2 53635  53.2176 232.7596 0001419  53.6523 263.8843 15.22461668  1300,6876.555,94.584,499.396,497.444,0.0
53635.0,STARLINK-4587,PAYLOAD,2022-11-21 14:00:01,15.20857663,0.0001302,53.2166,229.7068,52.0887,319.3905,-0.057376,-0.01180531,0.0,0 STARLINK-4587,1 53635U 22104AZ  22325.58334491 -.01180531  00000-0 -57376-1 0  9992,2 53635  53.2166 229.7068 0001302  52.0887 319.3905 15.20857663  1304,6881.389,94.683,504.15,502.358,0.0
53635.0,STARLINK-4587,PAYLOAD,2022-11-21 22:00:00,15.20049252,0.0001222,53.2167,228.1839,73.3862,323.6009,-0.059197,-0.01188693,0.0,0 STARLINK-4587,1 53635U 22104AZ  22325.91667824 -.01188693  00000-0 -59197-1 0  9998,2 53635  53.2167 228.1839 0001222  73.3862 323.6009 15.20049252 13475,6883.829000000002,94.734,506.535,504.853,0.0
53635.0,STARLINK-4587,PAYLOAD,2022-11-22 00:00:00,15.19818954,0.0001435,53.217,227.804,73.9194,59.3059,-0.057633,-0.01152551,0.0,0 STARLINK-4587,1 53635U 22104AZ  22326.00001157 -.01152551  00000-0 -57633-1 0  9997,2 53635  53.2170 227.8040 0001435  73.9194  59.3059 15.19818954  1307,6884.524,94.748,507.377,505.401,0.0
53635.0,STARLINK-4587,PAYLOAD,2022-11-22 14:00:01,15.18390819,0.0001398,53.2174,225.1418,56.8081,28.3456,-0.05972,-0.01146115,0.0,0 STARLINK-4587,1 53635U 22104AZ  22326.58335648 -.01146115  00000-0 -59720-1 0  9993,2 53635  53.2174 225.1418 0001398  56.8081  28.3456 15.18390819  1305,6888.84,94.837,511.669,509.742,0.0
53635.0,STARLINK-4587,PAYLOAD,2022-11-22 22:00:00,15.1759914,0.0001321,53.2165,223.6255,74.8828,32.7731,-0.062891,-0.01176961,0.0,0 STARLINK-4587,1 53635U 22104AZ  22326.91667824 -.01176961  00000-0 -62891-1 0  9999,2 53635  53.2165 223.6255 0001321  74.8828  32.7731 15.17599140 13622,6891.236,94.887,514.011,512.191,0.0
53635.0,STARLINK-4587,PAYLOAD,2022-11-23 14:00:01,15.15951026,0.0001536,53.2174,220.5947,57.7412,92.1455,-0.064199,-0.01148237,0.0,0 STARLINK-4587,1 53635U 22104AZ  22327.58334491 -.01148237  00000-0 -64199-1 0  9992,2 53635  53.2174 220.5947 0001536  57.7412  92.1455 15.15951026  1301,6896.23,94.99,519.154,517.036,0.0
53635.0,STARLINK-4587,PAYLOAD,2022-11-23 22:00:00,15.1516172,0.0001413,53.2164,219.0839,77.4424,92.0743,-0.067702,-0.01181037,0.0,0 STARLINK-4587,1 53635U 22104AZ  22327.91667824 -.01181037  00000-0 -67702-1 0  9996,2 53635  53.2164 219.0839 0001413  77.4424  92.0743 15.15161720  1302,6898.625,95.039,521.464,519.515,0.0
53635.0,STARLINK-4587,PAYLOAD,2022-11-24 08:00:01,15.14124754,0.0001357,53.2166,217.1967,69.4432,213.2629,-0.068071,-0.01155145,0.0,0 STARLINK-4587,1 53635U 22104AZ  22328.33334491 -.01155145  00000-0 -68071-1 0  9995,2 53635  53.2166 217.1967 0001357  69.4432 213.2629 15.14124754 13838,6901.774,95.104,524.576,522.702,0.0
53635.0,STARLINK-4587,PAYLOAD,2022-11-24 14:00:01,15.13517737,0.0001457,53.2161,216.0649,62.8211,143.0575,-0.06951,-0.01159155,0.0,0 STARLINK-4587,1 53635U 22104AZ  22328.58334491 -.01159155  00000-0 -69510-1 0  9996,2 53635  53.2161 216.0649 0001457  62.8211 143.0575 15.13517737  1306,6903.619000000002,95.143,526.49,524.4780000000002,0.0
53635.0,STARLINK-4587,PAYLOAD,2022-11-24 22:00:00,15.12731793,0.0001439,53.2162,214.5597,75.9569,146.6156,-0.073434,-0.01194641,0.0,0 STARLINK-4587,1 53635U 22104AZ  22328.91667824 -.01194641  00000-0 -73434-1 0  9991,2 53635  53.2162 214.5597 0001439  75.9569 146.6156 15.12731793  1306,6906.01,95.192,528.869,526.881,0.0
53635.0,STARLINK-4587,PAYLOAD,2022-11-25 08:00:01,15.11681699,0.0001315,53.2166,212.6793,66.4127,265.69,-0.072736,-0.0115247,0.0,0 STARLINK-4587,1 53635U 22104AZ  22329.33334491 -.01152470  00000-0 -72736-1 0  9997,2 53635  53.2166 212.6793 0001315  66.4127 265.6900 15.11681699 13990,6909.208000000001,95.258,531.982,530.165,0.0
53635.0,STARLINK-4587,PAYLOAD,2022-11-25 14:00:01,15.11082895,0.0001434,53.2159,211.5517,63.6943,189.3768,-0.075031,-0.01167824,0.0,0 STARLINK-4587,1 53635U 22104AZ  22329.58334491 -.01167824  00000-0 -75031-1 0  9994,2 53635  53.2159 211.5517 0001434  63.6943 189.3768 15.11082895  1300,6911.033,95.296,533.889,531.9069999999998,0.0
53635.0,STARLINK-4587,PAYLOAD,2022-11-26 00:00:00,15.10030111,0.0001384,53.2166,209.6779,71.1533,288.9946,-0.07224,-0.01097593,0.0,0 STARLINK-4587,1 53635U 22104AZ  22330.00001157 -.01097593  00000-0 -72240-1 0  9997,2 53635  53.2166 209.6779 0001384  71.1533 288.9946 15.10030111  1317,6914.245,95.362,537.067,535.153,0.0
53635.0,STARLINK-4587,PAYLOAD,2022-11-26 06:00:00,15.09361742,0.0001506,53.2155,208.5538,68.3992,211.2412,-0.042729,-0.00646854,0.0,0 STARLINK-4587,1 53635U 22104AZ  22330.25001157 -.00646854  00000-0 -42729-1 0  9992,2 53635  53.2155 208.5538 0001506  68.3992 211.2412 15.09361742 14124,6916.286,95.405,539.193,537.109,0.0
53635.0,STARLINK-4587,PAYLOAD,2022-11-26 14:00:01,15.08864712,0.0001911,53.2104,207.0543,74.1521,217.399,0.0003493,5.279e-05,0.0,0 STARLINK-4587,1 53635U 22104AZ  22330.58334491  .00005279  00000-0  34930-3 0  9993,2 53635  53.2104 207.0543 0001911  74.1521 217.3990 15.08864712 14178,6917.805,95.436,540.992,538.3480000000002,0.0
53635.0,STARLINK-4587,PAYLOAD,2022-11-26 22:00:00,15.08881268,0.0001885,53.2109,205.5591,67.52199999999999,235.6636,-0.0038335,-0.00060853,0.0,0 STARLINK-4587,1 53635U 22104AZ  22330.91667824 -.00060853  00000-0 -38335-2 0  9992,2 53635  53.2109 205.5591 0001885  67.5220 235.6636 15.08881268  1307,6917.754,95.435,540.923,538.315,0.0
53635.0,STARLINK-4587,PAYLOAD,2022-11-27 14:00:01,15.08794062,0.000162,53.2136,202.5642,70.7409,255.6765,0.0028281999999999,0.00044954,0.0,0 STARLINK-4587,1 53635U 22104AZ  22331.58334491  .00044954  00000-0  28282-2 0  9999,2 53635  53.2136 202.5642 0001620  70.7409 255.6765 15.08794062  1303,6918.021,95.44,541.007,538.765,0.0
53635.0,STARLINK-4587,PAYLOAD,2022-11-27 22:00:00,15.08819868,0.0001732,53.2143,201.0695,64.4326,273.543,-0.00070676,-0.00011512,0.0,0 STARLINK-4587,1 53635U 22104AZ  22331.91667824 -.00011512  00000-0 -70676-3 0  9996,2 53635  53.2143 201.0695 0001732  64.4326 273.5430 15.08819868  1305,6917.941999999999,95.439,541.005,538.609,0.0
53635.0,STARLINK-4587,PAYLOAD,2022-11-28 06:00:00,15.08840483,0.000169,53.2143,199.5727,63.1124,286.4279,-0.0015722,-0.00025223,0.0,0 STARLINK-4587,1 53635U 22104AZ  22332.25001157 -.00025223  00000-0 -15722-2 0  9999,2 53635  53.2143 199.5727 0001690  63.1124 286.4279 15.08840483 14436,6917.879,95.438,540.913,538.575,0.0
53635.0,STARLINK-4587,PAYLOAD,2022-11-28 22:00:01,15.0883987,0.000177,53.2148,196.5802,65.0849,307.6914,-0.00056345,-9.244e-05,0.0,0 STARLINK-4587,1 53635U 22104AZ  22332.91668981 -.00009244  00000-0 -56345-3 0  9998,2 53635  53.2148 196.5802 0001770  65.0849 307.6914 15.08839870 14537,6917.880999999999,95.438,540.97,538.521,0.0
53635.0,STARLINK-4587,PAYLOAD,2022-11-29 14:00:01,15.08847429,0.0001607,53.2151,193.5857,72.3475,323.6225,-0.00034403,-5.76e-05,0.0,0 STARLINK-4587,1 53635U 22104AZ  22333.58335648 -.00005760  00000-0 -34403-3 0  9993,2 53635  53.2151 193.5857 0001607  72.3475 323.6225 15.08847429  1306,6917.858,95.437,540.8340000000002,538.611,0.0
